O3B MPOWER F1           
1 54755U 22174A   23301.52055226 -.00000021  00000+0  00000+0 0  9990
2 54755   0.0517  19.1356 0005308 212.7194 219.8326  5.00118371 17205
